SatCatId,ObjectName,LaunchYear,OrbitalPeriod,LaunchMass,StatusCode,Inclination,Status,UcsData,OrbitClassEstimated,LaunchSiteCountry,Owner,UseType,Purpose,LaunchVehicleClass,TLE1,TLE2,MeanMotion,Eccentricity,OrbitClass
60201,STARLINK-32020,2024,93.53,-1.0,+,53.16,Active,0,LEO,USA,USA,Unknown,Unknown,Unknown,1 60201U 24124U   24331.43509216  .00035729  00000+0  89935-3 0  9997,2 60201  53.1591 338.2126 0001913  75.3517 284.7700 15.39607986 23795,15.39607986,0.0001913,LEO
60202,STARLINK-32041,2024,93.53,-1.0,+,53.16,Active,0,LEO,USA,USA,Unknown,Unknown,Unknown,1 60202U 24124V   24331.06384406  .00002299  00000+0  67386-4 0  9992,2 60202  53.1582 340.1647 0000774   2.4357 357.6652 15.39635487 23729,15.39635487,7.74e-05,LEO
60203,OBJECT A,2024,94.36,-1.0,+,97.3,Active,0,LEO,USA,USA,Unknown,Unknown,Unknown,1 60203U 24125A   24331.02838560  .00030920  00000+0  11811-2 0  9997,2 60203  97.3000 179.9814 0025100 110.7845 249.6086 15.26272042 22038,15.26272042,0.00251,LEO
60204,OBJECT B,2024,93.84,-1.0,+,97.3,Active,0,LEO,USA,USA,Unknown,Unknown,Unknown,1 60204U 24125B   24331.53221604  .00057003  00000+0  16791-2 0  9992,2 60204  97.2973 181.3877 0018823  92.4121 267.9277 15.34668040 22176,15.3466804,0.0018823,LEO
60205,OBJECT C,2024,94.2,-1.0,+,97.3,Active,0,LEO,USA,USA,Unknown,Unknown,Unknown,1 60205U 24125C   24330.53382974  .00034643  00000+0  12342-2 0  9993,2 60205  97.2998 179.8594 0020730 103.4726 256.8826 15.28641367 21987,15.28641367,0.002073,LEO
60206,R5-S4,2024,94.44,-1.0,+,97.3,Active,0,LEO,USA,USA,Unknown,Unknown,Unknown,1 60206U 24125D   24330.52253722  .00019082  00000+0  76319-3 0  9996,2 60206  97.3007 179.4382 0025994 106.2590 254.1511 15.24818133 21950,15.24818133,0.0025994,LEO
60207,R5-S2,2024,94.42,-1.0,+,97.3,Active,0,LEO,USA,USA,Unknown,Unknown,Unknown,1 60207U 24125E   24330.57996062  .00020044  00000+0  79321-3 0  9999,2 60207  97.3001 179.5061 0025983 107.3933 253.0150 15.25161726 21969,15.25161726,0.0025983,LEO
60208,TECHEDSAT-11,2024,94.42,-1.0,+,97.3,Active,0,LEO,USA,USA,Unknown,Unknown,Unknown,1 60208U 24125F   24330.53304484  .00022943  00000+0  91070-3 0  9992,2 60208  97.3005 179.4213 0026088 108.4955 251.9122 15.25031015 21968,15.25031015,0.0026088,LEO
60209,MESAT1,2024,94.37,-1.0,+,97.3,Active,0,LEO,USA,USA,Unknown,Unknown,Unknown,1 60209U 24125G   24330.12765517  .00030189  00000+0  11675-2 0  9999,2 60209  97.3004 179.0505 0024571 115.4223 244.9563 15.25879134 21894,15.25879134,0.0024571,LEO
60211,TIANHUI 5C,2024,96.77,-1.0,+,97.83,Active,0,LEO,PRC,China,Unknown,Unknown,Unknown,1 60211U 24126A   24331.53094917  .00001475  00000+0  16640-3 0  9992,2 60211  97.8298 336.1494 0001329 100.6886 259.4480 14.88058809 21498,14.88058809,0.0001329,LEO
60212,TIANHUI 5D,2024,96.77,-1.0,+,97.83,Active,0,LEO,PRC,China,Unknown,Unknown,Unknown,1 60212U 24126B   24331.53101281  .00001455  00000+0  16424-3 0  9994,2 60212  97.8296 336.1465 0001679 101.8193 258.3212 14.88060061 21503,14.88060061,0.0001679,LEO
60233,TURKSAT 6A,2024,1436.11,-1.0,+,0.02,Active,0,GSO,USA,Turkey,Unknown,Unknown,Unknown,1 60233U 24127A   24330.68017646  .00000132  00000+0  00000+0 0  9994,2 60233   0.0223 312.6525 0004959 305.0271 102.2883  1.00270949  1313,1.00270949,0.0004959,GEO
60236,3CAT-4,2024,96.1,-1.0,+,62.0,Active,0,LEO,French Guiana,Spain,Unknown,Unknown,Unknown,1 60236U 24128B   24331.48450658  .00004928  00000+0  42431-3 0  9996,2 60236  61.9957  38.6253 0028597   7.5658 352.5857 14.98372299 20916,14.98372299,0.0028597,LEO
60237,GRBBETA,2024,96.03,-1.0,+,61.99,Active,0,LEO,French Guiana,Unknown,Unknown,Unknown,Unknown,1 60237U 24128C   24330.63710734  .00008531  00000+0  70180-3 0  9993,2 60237  61.9951  41.1772 0028362   7.0383 353.1098 14.99466422 20788,14.99466422,0.0028362,LEO
60238,ISTSAT-1,2024,95.96,-1.0,+,61.99,Active,0,LEO,French Guiana,Portugal,Unknown,Unknown,Unknown,1 60238U 24128D   24331.52156437  .00012906  00000+0  10210-2 0  9995,2 60238  61.9947  37.7095 0028480   6.9279 353.2199 15.00628863 20938,15.00628863,0.002848,LEO
60240,OOV-CUBE (TUBSAT-30),2024,96.12,-1.0,+,62.0,Active,0,LEO,French Guiana,Germany,Unknown,Unknown,Unknown,1 60240U 24128F   24331.45246872  .00006365  00000+0  54651-3 0  9993,2 60240  61.9991  39.0744 0026523   2.4668 357.6547 14.98162519 20904,14.98162519,0.0026523,LEO
60242,CURIUM ONE,2024,96.01,-1.0,+,61.99,Active,0,LEO,French Guiana,Germany,Unknown,Unknown,Unknown,1 60242U 24128H   24330.53781250  .00014440  00000+0  11616-2 0  9993,2 60242  61.9855  41.6404 0028721 357.7217   2.3737 14.99911684 20771,14.99911684,0.0028721,LEO
60243,ROBUSTA-3A (MEDITERRANEE),2024,96.02,-1.0,+,61.99,Active,0,LEO,French Guiana,France,Unknown,Unknown,Unknown,1 60243U 24128J   24330.49252013  .00014606  00000+0  11851-2 0  9994,2 60243  61.9922  42.0815 0026645 355.2762   4.8072 14.99617276 20767,14.99617276,0.0026645,LEO
60246,CATSAT,2024,94.49,-1.0,+,97.28,Active,0,LEO,USA,USA,Unknown,Unknown,Unknown,1 60246U 24125J   24305.53093938  .00025060  00000+0  10350-2 0  9999,2 60246  97.2856 156.0242 0050086 155.9060 204.4536 15.22826115 16253,15.22826115,0.0050086,LEO
60249,OBJECT A,2024,92.37,-1.0,+,97.45,Active,0,LEO,PRC,China,Unknown,Unknown,Unknown,1 60249U 24130A   24331.52591707  .00153717  82512-5  10163-2 0  9990,2 60249  97.4549  44.4665 0163480  78.8127 283.1457 15.59353296 20117,15.59353296,0.016348,LEO
60255,STARLINK-32138,2024,94.11,-1.0,+,53.16,Active,0,LEO,USA,USA,Unknown,Unknown,Unknown,1 60255U 24131A   24330.64371391  .00002584  00000+0  99323-4 0  9993,2 60255  53.1618  71.2432 0001027  81.8464 278.2653 15.30199178 20205,15.30199178,0.0001027,LEO
60256,STARLINK-32212,2024,93.86,-1.0,+,53.16,Active,0,LEO,USA,USA,Unknown,Unknown,Unknown,1 60256U 24131B   24330.64576687  .00018559  00000+0  56171-3 0  9991,2 60256  53.1587  73.3926 0001140  81.6188 278.4944 15.34250221 19876,15.34250221,0.000114,LEO
60257,STARLINK-32166,2024,94.11,-1.0,+,53.16,Active,0,LEO,USA,USA,Unknown,Unknown,Unknown,1 60257U 24131C   24330.66271564  .00001555  00000+0  64625-4 0  9992,2 60257  53.1612  71.3621 0001298  98.6430 261.4717 15.30194373 19903,15.30194373,0.0001298,LEO
60258,STARLINK-32200,2024,94.1,-1.0,+,53.16,Active,0,LEO,USA,USA,Unknown,Unknown,Unknown,1 60258U 24131D   24331.24212507 -.00004253  00000+0 -13165-3 0  9992,2 60258  53.1603  68.5808 0001452 112.8735 247.2420 15.30178030 19992,15.3017803,0.0001452,LEO
60259,STARLINK-32207,2024,93.86,-1.0,+,53.16,Active,0,LEO,USA,USA,Unknown,Unknown,Unknown,1 60259U 24131E   24330.65973999  .00000996  00000+0  40808-4 0  9999,2 60259  53.1602  73.4778 0001041  99.9999 260.1121 15.34232989 19871,15.34232989,0.0001041,LEO
60260,STARLINK-32125,2024,94.11,-1.0,+,53.16,Active,0,LEO,USA,USA,Unknown,Unknown,Unknown,1 60260U 24131F   24330.60151046  .00000283  00000+0  21673-4 0  9995,2 60260  53.1621  70.9773 0001252  85.7879 274.3265 15.30196769 19906,15.30196769,0.0001252,LEO
60261,STARLINK-32160,2024,94.11,-1.0,+,53.16,Active,0,LEO,USA,USA,Unknown,Unknown,Unknown,1 60261U 24131G   24330.65744276  .00001267  00000+0  54927-4 0  9995,2 60261  53.1585  71.3230 0001498  86.3393 273.7779 15.30192384 19956,15.30192384,0.0001498,LEO
60262,STARLINK-32163,2024,94.11,-1.0,+,53.16,Active,0,LEO,USA,USA,Unknown,Unknown,Unknown,1 60262U 24131H   24331.27787201  .00002258  00000+0  88334-4 0  9990,2 60262  53.1592  68.0908 0001079  74.9886 285.1234 15.30200703 19997,15.30200703,0.0001079,LEO
60263,STARLINK-32148,2024,94.11,-1.0,+,53.16,Active,0,LEO,USA,USA,Unknown,Unknown,Unknown,1 60263U 24131J   24330.69953113  .00000521  00000+0  29721-4 0  9999,2 60263  53.1610  70.8791 0001195 103.9151 256.1983 15.30201696 19965,15.30201696,0.0001195,LEO
60264,STARLINK-32121,2024,94.11,-1.0,+,53.16,Active,0,LEO,USA,USA,Unknown,Unknown,Unknown,1 60264U 24131K   24330.70270030  .00001733  00000+0  70607-4 0  9997,2 60264  53.1614  70.9015 0000919  90.1089 270.0018 15.30196812 19967,15.30196812,9.19e-05,LEO
60265,STARLINK-32120,2024,94.11,-1.0,+,53.16,Active,0,LEO,USA,USA,Unknown,Unknown,Unknown,1 60265U 24131L   24330.66587748  .00002581  00000+0  99236-4 0  9991,2 60265  53.1608  71.3736 0001245 112.5111 247.6021 15.30196094 19959,15.30196094,0.0001245,LEO
60266,STARLINK-32205,2024,93.86,-1.0,+,53.16,Active,0,LEO,USA,USA,Unknown,Unknown,Unknown,1 60266U 24131M   24330.50614423  .00003606  00000+0  11855-3 0  9995,2 60266  53.1604  73.9444 0002063  48.1091 312.0087 15.34200474 19850,15.34200474,0.0002063,LEO
60267,STARLINK-32158,2024,94.11,-1.0,+,53.16,Active,0,LEO,USA,USA,Unknown,Unknown,Unknown,1 60267U 24131N   24330.48670773  .00001479  00000+0  62064-4 0  9998,2 60267  53.1596  71.6792 0001162  85.7935 274.3199 15.30195031 19789,15.30195031,0.0001162,LEO
60268,STARLINK-32167,2024,93.86,-1.0,+,53.16,Active,0,LEO,USA,USA,Unknown,Unknown,Unknown,1 60268U 24131P   24331.30183947 -.00023564  00000+0 -68933-3 0  9994,2 60268  53.1599  70.3730 0000153 300.4180  59.6807 15.34362363 19967,15.34362363,1.53e-05,LEO
60269,STARLINK-32144,2024,94.11,-1.0,+,53.16,Active,0,LEO,USA,USA,Unknown,Unknown,Unknown,1 60269U 24131Q   24331.28420901 -.00000635  00000+0 -93000-5 0  9995,2 60269  53.1610  68.1255 0001498 105.7577 254.3589 15.30189883 20051,15.30189883,0.0001498,LEO
60270,STARLINK-32211,2024,93.86,-1.0,+,53.16,Active,0,LEO,USA,USA,Unknown,Unknown,Unknown,1 60270U 24131R   24331.30617764  .00000951  00000+0  39468-4 0  9991,2 60270  53.1614  70.3977 0001306 131.7258 228.3857 15.34234366 19964,15.34234366,0.0001306,LEO
60271,STARLINK-32164,2024,94.11,-1.0,+,53.16,Active,0,LEO,USA,USA,Unknown,Unknown,Unknown,1 60271U 24131S   24330.66376856  .00000950  00000+0  44185-4 0  9995,2 60271  53.1601  71.3642 0001048 100.7873 259.3245 15.30195181 19808,15.30195181,0.0001048,LEO
60272,STARLINK-32128,2024,94.11,-1.0,+,53.16,Active,0,LEO,USA,USA,Unknown,Unknown,Unknown,1 60272U 24131T   24331.26731322  .00002037  00000+0  80857-4 0  9990,2 60272  53.1591  68.0225 0000781 126.2557 233.8516 15.30199440 20006,15.3019944,7.81e-05,LEO
